{"type": "FeatureCollection", "features": [ {"type": "Feature", "properties": {"norad_id": 67010, "name": "STARLINK-36189", "group": "last-30-days", "lat": -29.66346666024175, "lon": 121.95092552147081, "alt_km": 333.116422528381, "timestamp": "2025-12-24T09:46:29.717989+00:00", "meta": {"OBJECT_NAME": "STARLINK-36189", "OBJECT_ID": "2025-293H", "EPOCH": "2025-12-24T04:00:01.998720", "MEAN_MOTION": 15.81380153, "ECCENTRICITY": 0.0003623, "INCLINATION": 69.9932, "RA_OF_ASC_NODE": 290.6609, "ARG_OF_PERICENTER": 266.5936, "MEAN_ANOMALY": 16.1897, "EPHEMERIS_TYPE": 0, "CLASSIFICATION_TYPE": "U", "NORAD_CAT_ID": 67010, "ELEMENT_SET_NO": 999, "REV_AT_EPOCH": 201, "BSTAR": -0.0092203, "MEAN_MOTION_DOT": -0.01601068, "MEAN_MOTION_DDOT": 0}, "tle": {"line1": "1 67010U 25293H   25358.16668980 -.01601068  00000+0 -92203-2 0  9993", "line2": "2 67010  69.9932 290.6609 0003623 266.5936  16.1897 15.81380153  2017"}}, "geometry": {"type": "Point", "coordinates": [121.95092552147081, -29.66346666024175]}}, {"type": "Feature", "properties": {"norad_id": 67011, "name": "STARLINK-36167", "group": "last-30-days", "lat": -27.273149656388913, "lon": 120.80341463462565, "alt_km": 333.3188760972316, "timestamp": "2025-12-24T09:46:29.718019+00:00", "meta": {"OBJECT_NAME": "STARLINK-36167", "OBJECT_ID": "2025-293J", "EPOCH": "2025-12-24T04:00:01.998720", "MEAN_MOTION": 15.81396863, "ECCENTRICITY": 0.0003517, "INCLINATION": 69.9927, "RA_OF_ASC_NODE": 290.6632, "ARG_OF_PERICENTER": 274.3216, "MEAN_ANOMALY": 5.8524, "EPHEMERIS_TYPE": 0, "CLASSIFICATION_TYPE": "U", "NORAD_CAT_ID": 67011, "ELEMENT_SET_NO": 999, "REV_AT_EPOCH": 194, "BSTAR": -0.0092187, "MEAN_MOTION_DOT": -0.01601808, "MEAN_MOTION_DDOT": 0}, "tle": {"line1": "1 67011U 25293J   25358.16668980 -.01601808  00000+0 -92187-2 0  9997", "line2": "2 67011  69.9927 290.6632 0003517 274.3216   5.8524 15.81396863  1946"}}, "geometry": {"type": "Point", "coordinates": [120.80341463462565, -27.273149656388913]}}, {"type": "Feature", "properties": {"norad_id": 67012, "name": "STARLINK-36175", "group": "last-30-days", "lat": -31.692173501846256, "lon": 122.97199046148474, "alt_km": 333.5084846958289, "timestamp": "2025-12-24T09:46:29.718030+00:00", "meta": {"OBJECT_NAME": "STARLINK-36175", "OBJECT_ID": "2025-293K", "EPOCH": "2025-12-24T04:00:01.998720", "MEAN_MOTION": 15.81362115, "ECCENTRICITY": 0.0003612, "INCLINATION": 69.9927, "RA_OF_ASC_NODE": 290.6578, "ARG_OF_PERICENTER": 274.5093, "MEAN_ANOMALY": 10.5058, "EPHEMERIS_TYPE": 0, "CLASSIFICATION_TYPE": "U", "NORAD_CAT_ID": 67012, "ELEMENT_SET_NO": 999, "REV_AT_EPOCH": 194, "BSTAR": -0.0092299, "MEAN_MOTION_DOT": -0.01601323, "MEAN_MOTION_DDOT": 0}, "tle": {"line1": "1 67012U 25293K   25358.16668980 -.01601323  00000+0 -92299-2 0  9994", "line2": "2 67012  69.9927 290.6578 0003612 274.5093  10.5058 15.81362115  1945"}}, "geometry": {"type": "Point", "coordinates": [122.97199046148474, -31.692173501846256]}}, {"type": "Feature", "properties": {"norad_id": 67013, "name": "STARLINK-35856", "group": "last-30-days", "lat": -34.04043153535013, "lon": 124.21715553831848, "alt_km": 333.36867051947684, "timestamp": "2025-12-24T09:46:29.718043+00:00", "meta": {"OBJECT_NAME": "STARLINK-35856", "OBJECT_ID": "2025-293L", "EPOCH": "2025-12-24T04:00:01.998720", "MEAN_MOTION": 15.81339719, "ECCENTRICITY": 0.0003532, "INCLINATION": 69.9925, "RA_OF_ASC_NODE": 290.6544, "ARG_OF_PERICENTER": 266.4925, "MEAN_ANOMALY": 21.1104, "EPHEMERIS_TYPE": 0, "CLASSIFICATION_TYPE": "U", "NORAD_CAT_ID": 67013, "ELEMENT_SET_NO": 999, "REV_AT_EPOCH": 195, "BSTAR": -0.0092115, "MEAN_MOTION_DOT": -0.01597004, "MEAN_MOTION_DDOT": 0}, "tle": {"line1": "1 67013U 25293L   25358.16668980 -.01597004  00000+0 -92115-2 0  9992", "line2": "2 67013  69.9925 290.6544 0003532 266.4925  21.1104 15.81339719  1957"}}, "geometry": {"type": "Point", "coordinates": [124.21715553831848, -34.04043153535013]}}, {"type": "Feature", "properties": {"norad_id": 67014, "name": "STARLINK-36207", "group": "last-30-days", "lat": -36.2487589112534, "lon": 125.46003731511912, "alt_km": 333.5146380612914, "timestamp": "2025-12-24T09:46:29.718053+00:00", "meta": {"OBJECT_NAME": "STARLINK-36207", "OBJECT_ID": "2025-293M", "EPOCH": "2025-12-24T04:00:01.998720", "MEAN_MOTION": 15.81323703, "ECCENTRICITY": 0.0003555, "INCLINATION": 69.9929, "RA_OF_ASC_NODE": 290.652, "ARG_OF_PERICENTER": 268.0673, "MEAN_ANOMALY": 21.9865, "EPHEMERIS_TYPE": 0, "CLASSIFICATION_TYPE": "U", "NORAD_CAT_ID": 67014, "ELEMENT_SET_NO": 999, "REV_AT_EPOCH": 201, "BSTAR": -0.0092799, "MEAN_MOTION_DOT": -0.01606329, "MEAN_MOTION_DDOT": 0}, "tle": {"line1": "1 67014U 25293M   25358.16668980 -.01606329  00000+0 -92799-2 0  9992", "line2": "2 67014  69.9929 290.6520 0003555 268.0673  21.9865 15.81323703  2015"}}, "geometry": {"type": "Point", "coordinates": [125.46003731511912, -36.2487589112534]}}, {"type": "Feature", "properties": {"norad_id": 67015, "name": "STARLINK-36093", "group": "last-30-days", "lat": -40.571057802466804, "lon": 128.13811062578785, "alt_km": 333.66683701507554, "timestamp": "2025-12-24T09:46:29.718063+00:00", "meta": {"OBJECT_NAME": "STARLINK-36093", "OBJECT_ID": "2025-293N", "EPOCH": "2025-12-24T04:00:01.998720", "MEAN_MOTION": 15.81285127, "ECCENTRICITY": 0.0003515, "INCLINATION": 69.9924, "RA_OF_ASC_NODE": 290.6457, "ARG_OF_PERICENTER": 267.0467, "MEAN_ANOMALY": 27.8486, "EPHEMERIS_TYPE": 0, "CLASSIFICATION_TYPE": "U", "NORAD_CAT_ID": 67015, "ELEMENT_SET_NO": 999, "REV_AT_EPOCH": 195, "BSTAR": -0.0092576, "MEAN_MOTION_DOT": -0.01600392, "MEAN_MOTION_DDOT": 0}, "tle": {"line1": "1 67015U 25293N   25358.16668980 -.01600392  00000+0 -92576-2 0  9990", "line2": "2 67015  69.9924 290.6457 0003515 267.0467  27.8486 15.81285127  1959"}}, "geometry": {"type": "Point", "coordinates": [128.13811062578785, -40.571057802466804]}}, {"type": "Feature", "properties": {"norad_id": 67016, "name": "STARLINK-36120", "group": "last-30-days", "lat": -38.314906531885924, "lon": 126.69544342303276, "alt_km": 333.57656211955236, "timestamp": "2025-12-24T09:46:29.718072+00:00", "meta": {"OBJECT_NAME": "STARLINK-36120", "OBJECT_ID": "2025-293P", "EPOCH": "2025-12-24T04:00:01.998720", "MEAN_MOTION": 15.81308917, "ECCENTRICITY": 0.0003547, "INCLINATION": 69.9926, "RA_OF_ASC_NODE": 290.6489, "ARG_OF_PERICENTER": 267.4849, "MEAN_ANOMALY": 24.8724, "EPHEMERIS_TYPE": 0, "CLASSIFICATION_TYPE": "U", "NORAD_CAT_ID": 67016, "ELEMENT_SET_NO": 999, "REV_AT_EPOCH": 195, "BSTAR": -0.0092881, "MEAN_MOTION_DOT": -0.01606583, "MEAN_MOTION_DDOT": 0}, "tle": {"line1": "1 67016U 25293P   25358.16668980 -.01606583  00000+0 -92881-2 0  9998", "line2": "2 67016  69.9926 290.6489 0003547 267.4849  24.8724 15.81308917  1955"}}, "geometry": {"type": "Point", "coordinates": [126.69544342303276, -38.314906531885924]}}, {"type": "Feature", "properties": {"norad_id": 67017, "name": "STARLINK-35498", "group": "last-30-days", "lat": -42.684393749490745, "lon": 129.59272926912408, "alt_km": 333.6282627203436, "timestamp": "2025-12-24T09:46:29.718086+00:00", "meta": {"OBJECT_NAME": "STARLINK-35498", "OBJECT_ID": "2025-293Q", "EPOCH": "2025-12-24T04:00:01.998720", "MEAN_MOTION": 15.81276823, "ECCENTRICITY": 0.0003796, "INCLINATION": 69.9922, "RA_OF_ASC_NODE": 290.6426, "ARG_OF_PERICENTER": 268.7733, "MEAN_ANOMALY": 28.5135, "EPHEMERIS_TYPE": 0, "CLASSIFICATION_TYPE": "U", "NORAD_CAT_ID": 67017, "ELEMENT_SET_NO": 999, "REV_AT_EPOCH": 214, "BSTAR": -0.0092924, "MEAN_MOTION_DOT": -0.016054, "MEAN_MOTION_DDOT": 0}, "tle": {"line1": "1 67017U 25293Q   25358.16668980 -.01605400  00000+0 -92924-2 0  9994", "line2": "2 67017  69.9922 290.6426 0003796 268.7733  28.5135 15.81276823  2144"}}, "geometry": {"type": "Point", "coordinates": [129.59272926912408, -42.684393749490745]}}, {"type": "Feature", "properties": {"norad_id": 67018, "name": "STARLINK-36106", "group": "last-30-days", "lat": -44.79749224552594, "lon": 131.16453577458148, "alt_km": 333.708030583306, "timestamp": "2025-12-24T09:46:29.718096+00:00", "meta": {"OBJECT_NAME": "STARLINK-36106", "OBJECT_ID": "2025-293R", "EPOCH": "2025-12-24T04:00:01.998720", "MEAN_MOTION": 15.81249587, "ECCENTRICITY": 0.0003823, "INCLINATION": 69.9921, "RA_OF_ASC_NODE": 290.6394, "ARG_OF_PERICENTER": 269.4274, "MEAN_ANOMALY": 30.2839, "EPHEMERIS_TYPE": 0, "CLASSIFICATION_TYPE": "U", "NORAD_CAT_ID": 67018, "ELEMENT_SET_NO": 999, "REV_AT_EPOCH": 206, "BSTAR": -0.009255, "MEAN_MOTION_DOT": -0.01598008, "MEAN_MOTION_DDOT": 0}, "tle": {"line1": "1 67018U 25293R   25358.16668980 -.01598008  00000+0 -92550-2 0  9995", "line2": "2 67018  69.9921 290.6394 0003823 269.4274  30.2839 15.81249587  2066"}}, "geometry": {"type": "Point", "coordinates": [131.16453577458148, -44.79749224552594]}}, {"type": "Feature", "properties": {"norad_id": 67019, "name": "STARLINK-35688", "group": "last-30-days", "lat": -46.774871233073455, "lon": 132.76086190231516, "alt_km": 333.75609797432844, "timestamp": "2025-12-24T09:46:29.718106+00:00", "meta": {"OBJECT_NAME": "STARLINK-35688", "OBJECT_ID": "2025-293S", "EPOCH": "2025-12-24T04:00:01.998720", "MEAN_MOTION": 15.81245594, "ECCENTRICITY": 0.0003721, "INCLINATION": 69.9919, "RA_OF_ASC_NODE": 290.6365, "ARG_OF_PERICENTER": 268.1107, "MEAN_ANOMALY": 33.8768, "EPHEMERIS_TYPE": 0, "CLASSIFICATION_TYPE": "U", "NORAD_CAT_ID": 67019, "ELEMENT_SET_NO": 999, "REV_AT_EPOCH": 214, "BSTAR": -0.0093024, "MEAN_MOTION_DOT": -0.01604782, "MEAN_MOTION_DDOT": 0}, "tle": {"line1": "1 67019U 25293S   25358.16668980 -.01604782  00000+0 -93024-2 0  9990", "line2": "2 67019  69.9919 290.6365 0003721 268.1107  33.8768 15.81245594  2143"}}, "geometry": {"type": "Point", "coordinates": [132.76086190231516, -46.774871233073455]}}]}